{
  "norad_id": 53392,
  "name": "STARLINK-4535",
  "history": [
    {
      "epoch": "2026-04-11T08:40:23.418624Z",
      "apogee_km": 540.7529381031691,
      "perigee_km": 538.7467509182616,
      "latitude_deg": -2.154843634265427e-05,
      "longitude_deg": 7.772134054191095,
      "height_km": 540.5355040748994,
      "semi_major_axis_km": 6917.886844510715,
      "eccentricity": 0.000145,
      "inclination_deg": 53.2182,
      "raan_deg": 337.4517,
      "arg_perigee_deg": 83.7029,
      "mean_anomaly_deg": 276.4128,
      "mean_motion_rev_day": 15.08837888
    },
    {
      "epoch": "2026-04-13T00:25:02.163360Z",
      "apogee_km": 540.7024246185074,
      "perigee_km": 538.7964085530093,
      "latitude_deg": 7.031369846313759e-06,
      "longitude_deg": 122.54468539564115,
      "height_km": 540.6156742034675,
      "semi_major_axis_km": 6917.886416585758,
      "eccentricity": 0.00013776,
      "inclination_deg": 53.2177,
      "raan_deg": 330.0179,
      "arg_perigee_deg": 88.2288,
      "mean_anomaly_deg": 271.8862,
      "mean_motion_rev_day": 15.08838028
    },
    {
      "epoch": "2026-04-14T20:55:49.777824Z",
      "apogee_km": 540.6695387040327,
      "perigee_km": 538.8100134266251,
      "latitude_deg": -1.1411181489453511e-05,
      "longitude_deg": 164.6910867348401,
      "height_km": 540.6312773272698,
      "semi_major_axis_km": 6917.876776065328,
      "eccentricity": 0.0001344,
      "inclination_deg": 53.2175,
      "raan_deg": 321.6908,
      "arg_perigee_deg": 89.7387,
      "mean_anomaly_deg": 270.3759,
      "mean_motion_rev_day": 15.08841182
    },
    {
      "epoch": "2026-04-15T20:46:36.957792Z",
      "apogee_km": 540.7088463340606,
      "perigee_km": 538.7829077410934,
      "latitude_deg": -3.9740132463172764e-05,
      "longitude_deg": 161.55384595275072,
      "height_km": 540.6854999664546,
      "semi_major_axis_km": 6917.882877037577,
      "eccentricity": 0.0001392,
      "inclination_deg": 53.2178,
      "raan_deg": 317.2295,
      "arg_perigee_deg": 92.6136,
      "mean_anomaly_deg": 267.5015,
      "mean_motion_rev_day": 15.08839186
    },
    {
      "epoch": "2026-04-16T20:37:24.665664Z",
      "apogee_km": 540.7245720961491,
      "perigee_km": 538.8027792884404,
      "latitude_deg": -2.20808763132657e-05,
      "longitude_deg": 158.41583370801763,
      "height_km": 540.6765445378389,
      "semi_major_axis_km": 6917.9006756922945,
      "eccentricity": 0.0001389,
      "inclination_deg": 53.2173,
      "raan_deg": 312.7696,
      "arg_perigee_deg": 91.0264,
      "mean_anomaly_deg": 269.0887,
      "mean_motion_rev_day": 15.08833363
    },
    {
      "epoch": "2026-04-17T17:17:25.940832Z",
      "apogee_km": 540.742765030418,
      "perigee_km": 538.8128051636722,
      "latitude_deg": 5.645765527420308e-06,
      "longitude_deg": -156.3037221646283,
      "height_km": 540.6923240992456,
      "semi_major_axis_km": 6917.914785097045,
      "eccentricity": 0.00013949,
      "inclination_deg": 53.2163,
      "raan_deg": 308.9041,
      "arg_perigee_deg": 91.1284,
      "mean_anomaly_deg": 268.9868,
      "mean_motion_rev_day": 15.08828747
    },
    {
      "epoch": "2026-04-18T06:00:31.149792Z",
      "apogee_km": 540.7184394927826,
      "perigee_km": 538.826114589142,
      "latitude_deg": -6.525902176743107e-05,
      "longitude_deg": 10.022907068718409,
      "height_km": 540.6528202705307,
      "semi_major_axis_km": 6917.9092770409625,
      "eccentricity": 0.00013677,
      "inclination_deg": 53.2158,
      "raan_deg": 306.5248,
      "arg_perigee_deg": 89.0923,
      "mean_anomaly_deg": 271.0225,
      "mean_motion_rev_day": 15.08830549
    },
    {
      "epoch": "2026-04-18T21:54:20.823264Z",
      "apogee_km": 540.6394731231649,
      "perigee_km": 538.7661221059716,
      "latitude_deg": -2.002427896834147e-05,
      "longitude_deg": 127.93899590598207,
      "height_km": 540.579153401557,
      "semi_major_axis_km": 6917.839797614568,
      "eccentricity": 0.0001354,
      "inclination_deg": 53.2168,
      "raan_deg": 303.5507,
      "arg_perigee_deg": 88.8191,
      "mean_anomaly_deg": 271.2956,
      "mean_motion_rev_day": 15.0885328
    },
    {
      "epoch": "2026-04-20T05:42:04.892832Z",
      "apogee_km": 540.815397976744,
      "perigee_km": 538.6321211210297,
      "latitude_deg": 1.1684158146373376e-05,
      "longitude_deg": 3.752496637537624,
      "height_km": 540.5822349638194,
      "semi_major_axis_km": 6917.860759548887,
      "eccentricity": 0.0001578,
      "inclination_deg": 53.2181,
      "raan_deg": 297.6036,
      "arg_perigee_deg": 88.0575,
      "mean_anomaly_deg": 272.0598,
      "mean_motion_rev_day": 15.08846422
    },
    {
      "epoch": "2026-04-21T18:15:56.351232Z",
      "apogee_km": 540.7606237606224,
      "perigee_km": 538.7115497523246,
      "latitude_deg": 1.8685261308048165e-05,
      "longitude_deg": 166.94724596817846,
      "height_km": 540.601849695492,
      "semi_major_axis_km": 6917.873086756473,
      "eccentricity": 0.0001481,
      "inclination_deg": 53.2178,
      "raan_deg": 290.7644,
      "arg_perigee_deg": 88.3323,
      "mean_anomaly_deg": 271.7839,
      "mean_motion_rev_day": 15.08842389
    },
    {
      "epoch": "2026-04-22T18:06:43.837056Z",
      "apogee_km": 540.8752877561046,
      "perigee_km": 538.6228240563005,
      "latitude_deg": 3.452231530994699e-05,
      "longitude_deg": 163.807955749841,
      "height_km": 540.6846683955616,
      "semi_major_axis_km": 6917.886055906202,
      "eccentricity": 0.0001628,
      "inclination_deg": 53.217,
      "raan_deg": 286.3023,
      "arg_perigee_deg": 92.0522,
      "mean_anomaly_deg": 268.0657,
      "mean_motion_rev_day": 15.08838146
    },
    {
      "epoch": "2026-04-22T21:17:30.217920Z",
      "apogee_km": 540.8201476097947,
      "perigee_km": 538.6908203032335,
      "latitude_deg": -1.3840520078181177e-05,
      "longitude_deg": 115.38958638020844,
      "height_km": 540.7157537590664,
      "semi_major_axis_km": 6917.892483956514,
      "eccentricity": 0.0001539,
      "inclination_deg": 53.2171,
      "raan_deg": 285.7078,
      "arg_perigee_deg": 93.4917,
      "mean_anomaly_deg": 266.6251,
      "mean_motion_rev_day": 15.08836043
    },
    {
      "epoch": "2026-04-24T16:12:56.203200Z",
      "apogee_km": 540.7863993575274,
      "perigee_km": 538.7539182342734,
      "latitude_deg": -1.9984777616366268e-05,
      "longitude_deg": -178.25971415827738,
      "height_km": 541.0892802497756,
      "semi_major_axis_km": 6917.9071587959,
      "eccentricity": 0.0001469,
      "inclination_deg": 53.2165,
      "raan_deg": 277.6796,
      "arg_perigee_deg": 114.6275,
      "mean_anomaly_deg": 245.487,
      "mean_motion_rev_day": 15.08831242
    },
    {
      "epoch": "2026-04-25T17:39:06.550272Z",
      "apogee_km": 540.3845076393636,
      "perigee_km": 539.1392858379513,
      "latitude_deg": -1.5371712330377717e-05,
      "longitude_deg": 154.39544821349799,
      "height_km": 540.636556140384,
      "semi_major_axis_km": 6917.898896738658,
      "eccentricity": 9e-05,
      "inclination_deg": 53.2172,
      "raan_deg": 272.9225,
      "arg_perigee_deg": 88.0073,
      "mean_anomaly_deg": 272.1022,
      "mean_motion_rev_day": 15.08833945
    },
    {
      "epoch": "2026-04-26T20:40:38.728704Z",
      "apogee_km": 540.5375386957867,
      "perigee_km": 538.8566433683491,
      "latitude_deg": -6.440421355065126e-05,
      "longitude_deg": 102.84603325627519,
      "height_km": 540.5193375128185,
      "semi_major_axis_km": 6917.834091032068,
      "eccentricity": 0.00012149,
      "inclination_deg": 53.2173,
      "raan_deg": 267.8671,
      "arg_perigee_deg": 84.9711,
      "mean_anomaly_deg": 275.1419,
      "mean_motion_rev_day": 15.08855147
    },
    {
      "epoch": "2026-04-27T17:20:40.049664Z",
      "apogee_km": 540.6026928782103,
      "perigee_km": 538.8483229462026,
      "latitude_deg": 6.213439369915768e-05,
      "longitude_deg": 148.12565910034223,
      "height_km": 540.5096605722598,
      "semi_major_axis_km": 6917.862507912206,
      "eccentricity": 0.0001268,
      "inclination_deg": 53.2178,
      "raan_deg": 264.0009,
      "arg_perigee_deg": 82.682,
      "mean_anomaly_deg": 277.4317,
      "mean_motion_rev_day": 15.0884585
    },
    {
      "epoch": "2026-04-28T15:36:03.520800Z",
      "apogee_km": 540.5661917290217,
      "perigee_km": 538.8644000642307,
      "latitude_deg": -3.88160745163878e-05,
      "longitude_deg": 169.20204554249116,
      "height_km": 540.5345687233399,
      "semi_major_axis_km": 6917.852295896626,
      "eccentricity": 0.000123,
      "inclination_deg": 53.2166,
      "raan_deg": 259.8392,
      "arg_perigee_deg": 84.8388,
      "mean_anomaly_deg": 275.2744,
      "mean_motion_rev_day": 15.08849191
    },
    {
      "epoch": "2026-04-29T15:26:50.868384Z",
      "apogee_km": 540.6145919356886,
      "perigee_km": 538.8768197999743,
      "latitude_deg": 6.770600789929472e-05,
      "longitude_deg": 166.0659031998674,
      "height_km": 540.5023903868555,
      "semi_major_axis_km": 6917.882705867831,
      "eccentricity": 0.0001256,
      "inclination_deg": 53.217,
      "raan_deg": 255.3796,
      "arg_perigee_deg": 80.7854,
      "mean_anomaly_deg": 279.3281,
      "mean_motion_rev_day": 15.08839242
    },
    {
      "epoch": "2026-04-30T15:17:37.408128Z",
      "apogee_km": 540.59210351204,
      "perigee_km": 538.8702461233279,
      "latitude_deg": -6.184605325156648e-06,
      "longitude_deg": 162.93130131034349,
      "height_km": 540.5455073739224,
      "semi_major_axis_km": 6917.868174817684,
      "eccentricity": 0.00012445,
      "inclination_deg": 53.2171,
      "raan_deg": 250.9183,
      "arg_perigee_deg": 84.5671,
      "mean_anomaly_deg": 275.5463,
      "mean_motion_rev_day": 15.08843996
    }
  ]
}